[
  {
    "COMMENT": "GENERATED VIA SPACETRACK.ORG API",
    "ORIGINATOR": "18 SPCS",
    "NORAD_CAT_ID": "48621",
    "OBJECT_NAME": "HAIYANG 2D",
    "OBJECT_TYPE": "PAYLOAD",
    "CLASSIFICATION_TYPE": "U",
    "INTLDES": "21043A",
    "EPOCH": "2023-04-29 01:41:46",
    "EPOCH_MICROSECONDS": "141152",
    "MEAN_MOTION": "13.83375679",
    "ECCENTRICITY": "0.0009121",
    "INCLINATION": "65.997",
    "RA_OF_ASC_NODE": "275.6475",
    "ARG_OF_PERICENTER": "255.2597",
    "MEAN_ANOMALY": "104.7466",
    "EPHEMERIS_TYPE": "0",
    "ELEMENT_SET_NO": "999",
    "REV_AT_EPOCH": "9819",
    "BSTAR": "0.000065011",
    "MEAN_MOTION_DOT": "-0.0000001",
    "MEAN_MOTION_DDOT": "0",
    "FILE": "3896261",
    "TLE_LINE0": "0 HAIYANG 2D",
    "TLE_LINE1": "1 48621U 21043A   23119.07067293 -.00000010  00000-0  65011-4 0  9990",
    "TLE_LINE2": "2 48621  65.9970 275.6475 0009121 255.2597 104.7466 13.83375679 98190",
    "OBJECT_ID": "2021-043A",
    "OBJECT_NUMBER": "48621",
    "SEMIMAJOR_AXIS": "7330.075",
    "PERIOD": "104.093",
    "APOGEE": "958.626",
    "PERIGEE": "945.254",
    "DECAYED": "0"
  },
  {
    "COMMENT": "GENERATED VIA SPACETRACK.ORG API",
    "ORIGINATOR": "18 SPCS",
    "NORAD_CAT_ID": "48621",
    "OBJECT_NAME": "HAIYANG 2D",
    "OBJECT_TYPE": "PAYLOAD",
    "CLASSIFICATION_TYPE": "U",
    "INTLDES": "21043A",
    "EPOCH": "2023-04-29 12:06:23",
    "EPOCH_MICROSECONDS": "693760",
    "MEAN_MOTION": "13.83375667",
    "ECCENTRICITY": "0.0009106",
    "INCLINATION": "65.9971",
    "RA_OF_ASC_NODE": "274.5674",
    "ARG_OF_PERICENTER": "255.119",
    "MEAN_ANOMALY": "104.8862",
    "EPHEMERIS_TYPE": "0",
    "ELEMENT_SET_NO": "999",
    "REV_AT_EPOCH": "9825",
    "BSTAR": "0.000058985",
    "MEAN_MOTION_DOT": "-0.00000016",
    "MEAN_MOTION_DDOT": "0",
    "FILE": "3896517",
    "TLE_LINE0": "0 HAIYANG 2D",
    "TLE_LINE1": "1 48621U 21043A   23119.50444090 -.00000016  00000-0  58985-4 0  9990",
    "TLE_LINE2": "2 48621  65.9971 274.5674 0009106 255.1190 104.8862 13.83375667 98256",
    "OBJECT_ID": "2021-043A",
    "OBJECT_NUMBER": "48621",
    "SEMIMAJOR_AXIS": "7330.075",
    "PERIOD": "104.093",
    "APOGEE": "958.615",
    "PERIGEE": "945.265",
    "DECAYED": "0"
  },
  {
    "COMMENT": "GENERATED VIA SPACETRACK.ORG API",
    "ORIGINATOR": "18 SPCS",
    "NORAD_CAT_ID": "48621",
    "OBJECT_NAME": "HAIYANG 2D",
    "OBJECT_TYPE": "PAYLOAD",
    "CLASSIFICATION_TYPE": "U",
    "INTLDES": "21043A",
    "EPOCH": "2023-04-29 20:46:55",
    "EPOCH_MICROSECONDS": "14528",
    "MEAN_MOTION": "13.83375786",
    "ECCENTRICITY": "0.0009096",
    "INCLINATION": "65.9972",
    "RA_OF_ASC_NODE": "273.6677",
    "ARG_OF_PERICENTER": "255.0036",
    "MEAN_ANOMALY": "105.0028",
    "EPHEMERIS_TYPE": "0",
    "ELEMENT_SET_NO": "999",
    "REV_AT_EPOCH": "9830",
    "BSTAR": "0.000066352",
    "MEAN_MOTION_DOT": "-0.00000008",
    "MEAN_MOTION_DDOT": "0",
    "FILE": "3896756",
    "TLE_LINE0": "0 HAIYANG 2D",
    "TLE_LINE1": "1 48621U 21043A   23119.86591452 -.00000008  00000-0  66352-4 0  9992",
    "TLE_LINE2": "2 48621  65.9972 273.6677 0009096 255.0036 105.0028 13.83375786 98301",
    "OBJECT_ID": "2021-043A",
    "OBJECT_NUMBER": "48621",
    "SEMIMAJOR_AXIS": "7330.075",
    "PERIOD": "104.093",
    "APOGEE": "958.607",
    "PERIGEE": "945.272",
    "DECAYED": "0"
  },
  {
    "COMMENT": "GENERATED VIA SPACETRACK.ORG API",
    "ORIGINATOR": "18 SPCS",
    "NORAD_CAT_ID": "48621",
    "OBJECT_NAME": "HAIYANG 2D",
    "OBJECT_TYPE": "PAYLOAD",
    "CLASSIFICATION_TYPE": "U",
    "INTLDES": "21043A",
    "EPOCH": "2023-04-30 03:43:20",
    "EPOCH_MICROSECONDS": "43840",
    "MEAN_MOTION": "13.83375843",
    "ECCENTRICITY": "0.0009103",
    "INCLINATION": "65.997",
    "RA_OF_ASC_NODE": "272.9473",
    "ARG_OF_PERICENTER": "254.993",
    "MEAN_ANOMALY": "105.0132",
    "EPHEMERIS_TYPE": "0",
    "ELEMENT_SET_NO": "999",
    "REV_AT_EPOCH": "9834",
    "BSTAR": "0.000066971",
    "MEAN_MOTION_DOT": "-0.00000008",
    "MEAN_MOTION_DDOT": "0",
    "FILE": "3897056",
    "TLE_LINE0": "0 HAIYANG 2D",
    "TLE_LINE1": "1 48621U 21043A   23120.15509310 -.00000008  00000-0  66971-4 0  9995",
    "TLE_LINE2": "2 48621  65.9970 272.9473 0009103 254.9930 105.0132 13.83375843 98349",
    "OBJECT_ID": "2021-043A",
    "OBJECT_NUMBER": "48621",
    "SEMIMAJOR_AXIS": "7330.074",
    "PERIOD": "104.093",
    "APOGEE": "958.612",
    "PERIGEE": "945.267",
    "DECAYED": "0"
  },
  {
    "COMMENT": "GENERATED VIA SPACETRACK.ORG API",
    "ORIGINATOR": "18 SPCS",
    "NORAD_CAT_ID": "48621",
    "OBJECT_NAME": "HAIYANG 2D",
    "OBJECT_TYPE": "PAYLOAD",
    "CLASSIFICATION_TYPE": "U",
    "INTLDES": "21043A",
    "EPOCH": "2023-04-30 14:07:57",
    "EPOCH_MICROSECONDS": "592128",
    "MEAN_MOTION": "13.83375859",
    "ECCENTRICITY": "0.0009094",
    "INCLINATION": "65.9971",
    "RA_OF_ASC_NODE": "271.8675",
    "ARG_OF_PERICENTER": "254.9159",
    "MEAN_ANOMALY": "105.089",
    "EPHEMERIS_TYPE": "0",
    "ELEMENT_SET_NO": "999",
    "REV_AT_EPOCH": "9840",
    "BSTAR": "0.000064122",
    "MEAN_MOTION_DOT": "-0.00000011",
    "MEAN_MOTION_DDOT": "0",
    "FILE": "3897397",
    "TLE_LINE0": "0 HAIYANG 2D",
    "TLE_LINE1": "1 48621U 21043A   23120.58886102 -.00000011  00000-0  64122-4 0  9999",
    "TLE_LINE2": "2 48621  65.9971 271.8675 0009094 254.9159 105.0890 13.83375859 98409",
    "OBJECT_ID": "2021-043A",
    "OBJECT_NUMBER": "48621",
    "SEMIMAJOR_AXIS": "7330.074",
    "PERIOD": "104.093",
    "APOGEE": "958.605",
    "PERIGEE": "945.273",
    "DECAYED": "0"
  },
  {
    "COMMENT": "GENERATED VIA SPACETRACK.ORG API",
    "ORIGINATOR": "18 SPCS",
    "NORAD_CAT_ID": "48621",
    "OBJECT_NAME": "HAIYANG 2D",
    "OBJECT_TYPE": "PAYLOAD",
    "CLASSIFICATION_TYPE": "U",
    "INTLDES": "21043A",
    "EPOCH": "2023-04-30 14:07:57",
    "EPOCH_MICROSECONDS": "592128",
    "MEAN_MOTION": "13.83375859",
    "ECCENTRICITY": "0.0009094",
    "INCLINATION": "65.9971",
    "RA_OF_ASC_NODE": "271.8675",
    "ARG_OF_PERICENTER": "254.9159",
    "MEAN_ANOMALY": "105.089",
    "EPHEMERIS_TYPE": "0",
    "ELEMENT_SET_NO": "999",
    "REV_AT_EPOCH": "9840",
    "BSTAR": "0.000064122",
    "MEAN_MOTION_DOT": "-0.00000011",
    "MEAN_MOTION_DDOT": "0",
    "FILE": "3897442",
    "TLE_LINE0": "0 HAIYANG 2D",
    "TLE_LINE1": "1 48621U 21043A   23120.58886102 -.00000011  00000-0  64122-4 0  9999",
    "TLE_LINE2": "2 48621  65.9971 271.8675 0009094 254.9159 105.0890 13.83375859 98409",
    "OBJECT_ID": "2021-043A",
    "OBJECT_NUMBER": "48621",
    "SEMIMAJOR_AXIS": "7330.074",
    "PERIOD": "104.093",
    "APOGEE": "958.605",
    "PERIGEE": "945.273",
    "DECAYED": "0"
  },
  {
    "COMMENT": "GENERATED VIA SPACETRACK.ORG API",
    "ORIGINATOR": "18 SPCS",
    "NORAD_CAT_ID": "48621",
    "OBJECT_NAME": "HAIYANG 2D",
    "OBJECT_TYPE": "PAYLOAD",
    "CLASSIFICATION_TYPE": "U",
    "INTLDES": "21043A",
    "EPOCH": "2023-04-30 21:04:22",
    "EPOCH_MICROSECONDS": "652544",
    "MEAN_MOTION": "13.83375985",
    "ECCENTRICITY": "0.0009091",
    "INCLINATION": "65.9971",
    "RA_OF_ASC_NODE": "271.1473",
    "ARG_OF_PERICENTER": "255.0797",
    "MEAN_ANOMALY": "104.927",
    "EPHEMERIS_TYPE": "0",
    "ELEMENT_SET_NO": "999",
    "REV_AT_EPOCH": "9844",
    "BSTAR": "0.000070624",
    "MEAN_MOTION_DOT": "-0.00000003",
    "MEAN_MOTION_DDOT": "0",
    "FILE": "3897663",
    "TLE_LINE0": "0 HAIYANG 2D",
    "TLE_LINE1": "1 48621U 21043A   23120.87803996 -.00000003  00000-0  70624-4 0  9996",
    "TLE_LINE2": "2 48621  65.9971 271.1473 0009091 255.0797 104.9270 13.83375985 98449",
    "OBJECT_ID": "2021-043A",
    "OBJECT_NUMBER": "48621",
    "SEMIMAJOR_AXIS": "7330.074",
    "PERIOD": "104.093",
    "APOGEE": "958.603",
    "PERIGEE": "945.275",
    "DECAYED": "0"
  },
  {
    "COMMENT": "GENERATED VIA SPACETRACK.ORG API",
    "ORIGINATOR": "18 SPCS",
    "NORAD_CAT_ID": "48621",
    "OBJECT_NAME": "HAIYANG 2D",
    "OBJECT_TYPE": "PAYLOAD",
    "CLASSIFICATION_TYPE": "U",
    "INTLDES": "21043A",
    "EPOCH": "2023-05-01 05:44:53",
    "EPOCH_MICROSECONDS": "938752",
    "MEAN_MOTION": "13.83376055",
    "ECCENTRICITY": "0.0009102",
    "INCLINATION": "65.997",
    "RA_OF_ASC_NODE": "270.2474",
    "ARG_OF_PERICENTER": "254.8992",
    "MEAN_ANOMALY": "105.1075",
    "EPHEMERIS_TYPE": "0",
    "ELEMENT_SET_NO": "999",
    "REV_AT_EPOCH": "9849",
    "BSTAR": "0.000070084",
    "MEAN_MOTION_DOT": "-0.00000004",
    "MEAN_MOTION_DDOT": "0",
    "FILE": "3897938",
    "TLE_LINE0": "0 HAIYANG 2D",
    "TLE_LINE1": "1 48621U 21043A   23121.23951318 -.00000004  00000-0  70084-4 0  9990",
    "TLE_LINE2": "2 48621  65.9970 270.2474 0009102 254.8992 105.1075 13.83376055 98496",
    "OBJECT_ID": "2021-043A",
    "OBJECT_NUMBER": "48621",
    "SEMIMAJOR_AXIS": "7330.074",
    "PERIOD": "104.093",
    "APOGEE": "958.610",
    "PERIGEE": "945.267",
    "DECAYED": "0"
  }
]